[
  {
    "COMMENT": "GENERATED VIA SPACETRACK.ORG API",
    "ORIGINATOR": "18 SPCS",
    "NORAD_CAT_ID": "27386",
    "OBJECT_NAME": "ENVISAT",
    "OBJECT_TYPE": "PAYLOAD",
    "CLASSIFICATION_TYPE": "U",
    "INTLDES": "02009A",
    "EPOCH": "2023-07-17 23:01:04",
    "EPOCH_MICROSECONDS": "524096",
    "MEAN_MOTION": "14.38378032",
    "ECCENTRICITY": "0.000141",
    "INCLINATION": "98.2323",
    "RA_OF_ASC_NODE": "167.7008",
    "ARG_OF_PERICENTER": "87.9393",
    "MEAN_ANOMALY": "320.5695",
    "EPHEMERIS_TYPE": "0",
    "ELEMENT_SET_NO": "999",
    "REV_AT_EPOCH": "12038",
    "BSTAR": "0.00010467",
    "MEAN_MOTION_DOT": "0.00000277",
    "MEAN_MOTION_DDOT": "0",
    "FILE": "3960756",
    "TLE_LINE0": "0 ENVISAT",
    "TLE_LINE1": "1 27386U 02009A   23198.95908014  .00000277  00000-0  10467-3 0  9993",
    "TLE_LINE2": "2 27386  98.2323 167.7008 0001410  87.9393 320.5695 14.38378032120382",
    "OBJECT_ID": "2002-009A",
    "OBJECT_NUMBER": "27386",
    "SEMIMAJOR_AXIS": "7141.999",
    "PERIOD": "100.113",
    "APOGEE": "764.871",
    "PERIGEE": "762.857",
    "DECAYED": "0"
  },
  {
    "COMMENT": "GENERATED VIA SPACETRACK.ORG API",
    "ORIGINATOR": "18 SPCS",
    "NORAD_CAT_ID": "27386",
    "OBJECT_NAME": "ENVISAT",
    "OBJECT_TYPE": "PAYLOAD",
    "CLASSIFICATION_TYPE": "U",
    "INTLDES": "02009A",
    "EPOCH": "2023-07-18 10:59:26",
    "EPOCH_MICROSECONDS": "782368",
    "MEAN_MOTION": "14.38378307",
    "ECCENTRICITY": "0.0001413",
    "INCLINATION": "98.2323",
    "RA_OF_ASC_NODE": "168.1793",
    "ARG_OF_PERICENTER": "87.7076",
    "MEAN_ANOMALY": "22.5233",
    "EPHEMERIS_TYPE": "0",
    "ELEMENT_SET_NO": "999",
    "REV_AT_EPOCH": "12045",
    "BSTAR": "0.00010136",
    "MEAN_MOTION_DOT": "0.00000267",
    "MEAN_MOTION_DDOT": "0",
    "FILE": "3961076",
    "TLE_LINE0": "0 ENVISAT",
    "TLE_LINE1": "1 27386U 02009A   23199.45794887  .00000267  00000-0  10136-3 0  9992",
    "TLE_LINE2": "2 27386  98.2323 168.1793 0001413  87.7076  22.5233 14.38378307120457",
    "OBJECT_ID": "2002-009A",
    "OBJECT_NUMBER": "27386",
    "SEMIMAJOR_AXIS": "7141.999",
    "PERIOD": "100.113",
    "APOGEE": "764.873",
    "PERIGEE": "762.854",
    "DECAYED": "0"
  },
  {
    "COMMENT": "GENERATED VIA SPACETRACK.ORG API",
    "ORIGINATOR": "18 SPCS",
    "NORAD_CAT_ID": "27386",
    "OBJECT_NAME": "ENVISAT",
    "OBJECT_TYPE": "PAYLOAD",
    "CLASSIFICATION_TYPE": "U",
    "INTLDES": "02009A",
    "EPOCH": "2023-07-18 12:39:32",
    "EPOCH_MICROSECONDS": "314176",
    "MEAN_MOTION": "14.38378336",
    "ECCENTRICITY": "0.0001413",
    "INCLINATION": "98.2323",
    "RA_OF_ASC_NODE": "168.2459",
    "ARG_OF_PERICENTER": "87.6645",
    "MEAN_ANOMALY": "22.2834",
    "EPHEMERIS_TYPE": "0",
    "ELEMENT_SET_NO": "999",
    "REV_AT_EPOCH": "12046",
    "BSTAR": "0.00010089",
    "MEAN_MOTION_DOT": "0.00000266",
    "MEAN_MOTION_DDOT": "0",
    "FILE": "3961431",
    "TLE_LINE0": "0 ENVISAT",
    "TLE_LINE1": "1 27386U 02009A   23199.52745734  .00000266  00000-0  10089-3 0  9993",
    "TLE_LINE2": "2 27386  98.2323 168.2459 0001413  87.6645  22.2834 14.38378336120465",
    "OBJECT_ID": "2002-009A",
    "OBJECT_NUMBER": "27386",
    "SEMIMAJOR_AXIS": "7141.998",
    "PERIOD": "100.113",
    "APOGEE": "764.873",
    "PERIGEE": "762.854",
    "DECAYED": "0"
  },
  {
    "COMMENT": "GENERATED VIA SPACETRACK.ORG API",
    "ORIGINATOR": "18 SPCS",
    "NORAD_CAT_ID": "27386",
    "OBJECT_NAME": "ENVISAT",
    "OBJECT_TYPE": "PAYLOAD",
    "CLASSIFICATION_TYPE": "U",
    "INTLDES": "02009A",
    "EPOCH": "2023-07-18 20:39:01",
    "EPOCH_MICROSECONDS": "5984",
    "MEAN_MOTION": "14.38378621",
    "ECCENTRICITY": "0.0001407",
    "INCLINATION": "98.2323",
    "RA_OF_ASC_NODE": "168.5653",
    "ARG_OF_PERICENTER": "87.8995",
    "MEAN_ANOMALY": "305.2246",
    "EPHEMERIS_TYPE": "0",
    "ELEMENT_SET_NO": "999",
    "REV_AT_EPOCH": "12051",
    "BSTAR": "0.00010483",
    "MEAN_MOTION_DOT": "0.00000278",
    "MEAN_MOTION_DDOT": "0",
    "FILE": "3961535",
    "TLE_LINE0": "0 ENVISAT",
    "TLE_LINE1": "1 27386U 02009A   23199.86042831  .00000278  00000-0  10483-3 0  9999",
    "TLE_LINE2": "2 27386  98.2323 168.5653 0001407  87.8995 305.2246 14.38378621120511",
    "OBJECT_ID": "2002-009A",
    "OBJECT_NUMBER": "27386",
    "SEMIMAJOR_AXIS": "7141.998",
    "PERIOD": "100.113",
    "APOGEE": "764.867",
    "PERIGEE": "762.858",
    "DECAYED": "0"
  },
  {
    "COMMENT": "GENERATED VIA SPACETRACK.ORG API",
    "ORIGINATOR": "18 SPCS",
    "NORAD_CAT_ID": "27386",
    "OBJECT_NAME": "ENVISAT",
    "OBJECT_TYPE": "PAYLOAD",
    "CLASSIFICATION_TYPE": "U",
    "INTLDES": "02009A",
    "EPOCH": "2023-07-19 10:37:35",
    "EPOCH_MICROSECONDS": "82624",
    "MEAN_MOTION": "14.38379009",
    "ECCENTRICITY": "0.0001412",
    "INCLINATION": "98.2324",
    "RA_OF_ASC_NODE": "169.1238",
    "ARG_OF_PERICENTER": "87.8126",
    "MEAN_ANOMALY": "79.0049",
    "EPHEMERIS_TYPE": "0",
    "ELEMENT_SET_NO": "999",
    "REV_AT_EPOCH": "12059",
    "BSTAR": "0.00010638",
    "MEAN_MOTION_DOT": "0.00000283",
    "MEAN_MOTION_DDOT": "0",
    "FILE": "3962002",
    "TLE_LINE0": "0 ENVISAT",
    "TLE_LINE1": "1 27386U 02009A   23200.44276716  .00000283  00000-0  10638-3 0  9995",
    "TLE_LINE2": "2 27386  98.2324 169.1238 0001412  87.8126  79.0049 14.38379009120596",
    "OBJECT_ID": "2002-009A",
    "OBJECT_NUMBER": "27386",
    "SEMIMAJOR_AXIS": "7141.996",
    "PERIOD": "100.113",
    "APOGEE": "764.870",
    "PERIGEE": "762.853",
    "DECAYED": "0"
  },
  {
    "COMMENT": "GENERATED VIA SPACETRACK.ORG API",
    "ORIGINATOR": "18 SPCS",
    "NORAD_CAT_ID": "27386",
    "OBJECT_NAME": "ENVISAT",
    "OBJECT_TYPE": "PAYLOAD",
    "CLASSIFICATION_TYPE": "U",
    "INTLDES": "02009A",
    "EPOCH": "2023-07-19 19:58:22",
    "EPOCH_MICROSECONDS": "306368",
    "MEAN_MOTION": "14.38379303",
    "ECCENTRICITY": "0.0001398",
    "INCLINATION": "98.2324",
    "RA_OF_ASC_NODE": "169.4974",
    "ARG_OF_PERICENTER": "87.6045",
    "MEAN_ANOMALY": "294.6025",
    "EPHEMERIS_TYPE": "0",
    "ELEMENT_SET_NO": "999",
    "REV_AT_EPOCH": "12065",
    "BSTAR": "0.00010883",
    "MEAN_MOTION_DOT": "0.0000029",
    "MEAN_MOTION_DDOT": "0",
    "FILE": "3962287",
    "TLE_LINE0": "0 ENVISAT",
    "TLE_LINE1": "1 27386U 02009A   23200.83220262  .00000290  00000-0  10883-3 0  9993",
    "TLE_LINE2": "2 27386  98.2324 169.4974 0001398  87.6045 294.6025 14.38379303120650",
    "OBJECT_ID": "2002-009A",
    "OBJECT_NUMBER": "27386",
    "SEMIMAJOR_AXIS": "7141.995",
    "PERIOD": "100.113",
    "APOGEE": "764.859",
    "PERIGEE": "762.862",
    "DECAYED": "0"
  },
  {
    "COMMENT": "GENERATED VIA SPACETRACK.ORG API",
    "ORIGINATOR": "18 SPCS",
    "NORAD_CAT_ID": "27386",
    "OBJECT_NAME": "ENVISAT",
    "OBJECT_TYPE": "PAYLOAD",
    "CLASSIFICATION_TYPE": "U",
    "INTLDES": "02009A",
    "EPOCH": "2023-07-19 23:23:58",
    "EPOCH_MICROSECONDS": "702272",
    "MEAN_MOTION": "14.38379497",
    "ECCENTRICITY": "0.0001388",
    "INCLINATION": "98.2324",
    "RA_OF_ASC_NODE": "169.6343",
    "ARG_OF_PERICENTER": "87.2129",
    "MEAN_ANOMALY": "313.9156",
    "EPHEMERIS_TYPE": "0",
    "ELEMENT_SET_NO": "999",
    "REV_AT_EPOCH": "12067",
    "BSTAR": "0.00011305",
    "MEAN_MOTION_DOT": "0.00000303",
    "MEAN_MOTION_DDOT": "0",
    "FILE": "3962456",
    "TLE_LINE0": "0 ENVISAT",
    "TLE_LINE1": "1 27386U 02009A   23200.97498498  .00000303  00000-0  11305-3 0  9991",
    "TLE_LINE2": "2 27386  98.2324 169.6343 0001388  87.2129 313.9156 14.38379497120676",
    "OBJECT_ID": "2002-009A",
    "OBJECT_NUMBER": "27386",
    "SEMIMAJOR_AXIS": "7141.995",
    "PERIOD": "100.113",
    "APOGEE": "764.851",
    "PERIGEE": "762.868",
    "DECAYED": "0"
  },
  {
    "COMMENT": "GENERATED VIA SPACETRACK.ORG API",
    "ORIGINATOR": "18 SPCS",
    "NORAD_CAT_ID": "27386",
    "OBJECT_NAME": "ENVISAT",
    "OBJECT_TYPE": "PAYLOAD",
    "CLASSIFICATION_TYPE": "U",
    "INTLDES": "02009A",
    "EPOCH": "2023-07-20 13:05:06",
    "EPOCH_MICROSECONDS": "93024",
    "MEAN_MOTION": "14.38379804",
    "ECCENTRICITY": "0.0001389",
    "INCLINATION": "98.2324",
    "RA_OF_ASC_NODE": "170.1812",
    "ARG_OF_PERICENTER": "86.9725",
    "MEAN_ANOMALY": "25.1568",
    "EPHEMERIS_TYPE": "0",
    "ELEMENT_SET_NO": "999",
    "REV_AT_EPOCH": "12075",
    "BSTAR": "0.00011124",
    "MEAN_MOTION_DOT": "0.00000297",
    "MEAN_MOTION_DDOT": "0",
    "FILE": "3962773",
    "TLE_LINE0": "0 ENVISAT",
    "TLE_LINE1": "1 27386U 02009A   23201.54520941  .00000297  00000-0  11124-3 0  9995",
    "TLE_LINE2": "2 27386  98.2324 170.1812 0001389  86.9725  25.1568 14.38379804120753",
    "OBJECT_ID": "2002-009A",
    "OBJECT_NUMBER": "27386",
    "SEMIMAJOR_AXIS": "7141.994",
    "PERIOD": "100.113",
    "APOGEE": "764.851",
    "PERIGEE": "762.867",
    "DECAYED": "0"
  },
  {
    "COMMENT": "GENERATED VIA SPACETRACK.ORG API",
    "ORIGINATOR": "18 SPCS",
    "NORAD_CAT_ID": "27386",
    "OBJECT_NAME": "ENVISAT",
    "OBJECT_TYPE": "PAYLOAD",
    "CLASSIFICATION_TYPE": "U",
    "INTLDES": "02009A",
    "EPOCH": "2023-07-20 22:50:06",
    "EPOCH_MICROSECONDS": "18720",
    "MEAN_MOTION": "14.38380187",
    "ECCENTRICITY": "0.0001387",
    "INCLINATION": "98.2324",
    "RA_OF_ASC_NODE": "170.5709",
    "ARG_OF_PERICENTER": "86.9256",
    "MEAN_ANOMALY": "327.6079",
    "EPHEMERIS_TYPE": "0",
    "ELEMENT_SET_NO": "999",
    "REV_AT_EPOCH": "12081",
    "BSTAR": "0.00011651",
    "MEAN_MOTION_DOT": "0.00000314",
    "MEAN_MOTION_DDOT": "0",
    "FILE": "3962976",
    "TLE_LINE0": "0 ENVISAT",
    "TLE_LINE1": "1 27386U 02009A   23201.95145855  .00000314  00000-0  11651-3 0  9992",
    "TLE_LINE2": "2 27386  98.2324 170.5709 0001387  86.9256 327.6079 14.38380187120819",
    "OBJECT_ID": "2002-009A",
    "OBJECT_NUMBER": "27386",
    "SEMIMAJOR_AXIS": "7141.992",
    "PERIOD": "100.113",
    "APOGEE": "764.848",
    "PERIGEE": "762.867",
    "DECAYED": "0"
  }
]